GOKTURK 1A              
1 41875U 16073A   26115.91686861  .00000175  00000+0  43466-4 0  9991
2 41875  98.1301  11.3948 0001394  84.2438 275.8923 14.62792379501182
RESOURCESAT-2A          
1 41877U 16074A   26115.91735591 -.00000171  00000+0 -57915-4 0  9991
2 41877  98.7535 189.8447 0001488 201.6241 158.4874 14.21616391486878
CARTOSAT-2D             
1 41948U 17008A   26115.92925137  .00002776  00000+0  13486-3 0  9991
2 41948  97.4146 176.1973 0005736  72.2893 287.8968 15.19263110509646
SENTINEL-2B             
1 42063U 17013A   26115.89977183 -.00000047  00000+0 -13540-5 0  9994
2 42063  98.5647 191.4149 0001233  89.5030 270.6294 14.30813332477162
CARTOSAT-2E             
1 42767U 17036C   26115.81463277  .00000174  00000+0  11431-4 0  9991
2 42767  97.4313 176.4674 0004314 123.1784 236.9865 15.19300539490196
FORMOSAT-5              
1 42920U 17049A   26115.91618530  .00000151  00000+0  49293-4 0  9993
2 42920  98.2260 192.3847 0010325 240.0911 119.9259 14.50877463459096
SENTINEL-5P             
1 42969U 17064A   26115.83061100  .00000044  00000+0  41702-4 0  9997
2 42969  98.7940  58.3384 0001254  81.7214 278.4104 14.19509761442138
SKYSAT-C11              
1 42987U 17068A   26115.85492080  .00029740  00000+0  44135-3 0  9994
2 42987  97.4284 262.5396 0001515 141.8945 218.2416 15.55171984475100
SKYSAT-C10              
1 42988U 17068B   26115.85223961  .00011469  00000+0  35425-3 0  9996
2 42988  97.4423 252.2510 0001625 110.6604 249.4813 15.33701216474332
SKYSAT-C9               
1 42989U 17068C   26115.89775572  .00014398  00000+0  35937-3 0  9993
2 42989  97.4345 252.7472 0007619 331.9356  28.1478 15.40259219474708
SKYSAT-C8               
1 42990U 17068D   26115.83576131  .00012650  00000+0  36407-3 0  9991
2 42990  97.4439 251.8397 0001170 111.5117 248.6252 15.35910651474272
SKYSAT-C7               
1 42991U 17068E   26115.89254753  .00012376  00000+0  35679-3 0  9996
2 42991  97.4452 252.8833 0004702 297.8894  62.1873 15.35853996474342
SKYSAT-C6               
1 42992U 17068F   26115.89389335  .00011190  00000+0  34769-3 0  9994
2 42992  97.4485 253.0266 0001840   4.0652 356.0605 15.33518427474301
CARTOSAT-2F             
1 43111U 18004A   26115.91225176  .00003989  00000+0  19237-3 0  9994
2 43111  97.4073 176.1952 0002377  95.3247 264.8259 15.19268212459395
GAOFEN-1 02             
1 43259U 18031A   26115.91177821  .00000039  00000+0  12965-4 0  9995
2 43259  98.0559 178.5742 0003376 151.6651 208.4743 14.76440526434984
GAOFEN-1 03             
1 43260U 18031B   26115.95768089  .00000723  00000+0  11145-3 0  9991
2 43260  98.0557 178.4841 0001476 210.3977 149.7147 14.76430633434989
