[{"OBJECT_NAME":"GOKTURK 1A","OBJECT_ID":"2016-073A","EPOCH":"2026-04-25T22:00:17.447904","MEAN_MOTION":14.62792379,"ECCENTRICITY":0.00013946,"INCLINATION":98.1301,"RA_OF_ASC_NODE":11.3948,"ARG_OF_PERICENTER":84.2438,"MEAN_ANOMALY":275.8923,"EPHEMERIS_TYPE":0,"CLASSIFICATION_TYPE":"U","NORAD_CAT_ID":41875,"ELEMENT_SET_NO":999,"REV_AT_EPOCH":50118,"BSTAR":4.3465543e-5,"MEAN_MOTION_DOT":1.75e-6,"MEAN_MOTION_DDOT":0},{"OBJECT_NAME":"RESOURCESAT-2A","OBJECT_ID":"2016-074A","EPOCH":"2026-04-25T22:00:59.550624","MEAN_MOTION":14.21616391,"ECCENTRICITY":0.00014885,"INCLINATION":98.7535,"RA_OF_ASC_NODE":189.8447,"ARG_OF_PERICENTER":201.6241,"MEAN_ANOMALY":158.4874,"EPHEMERIS_TYPE":0,"CLASSIFICATION_TYPE":"U","NORAD_CAT_ID":41877,"ELEMENT_SET_NO":999,"REV_AT_EPOCH":48687,"BSTAR":-5.7915322e-5,"MEAN_MOTION_DOT":-1.71e-6,"MEAN_MOTION_DDOT":0},{"OBJECT_NAME":"CARTOSAT-2D","OBJECT_ID":"2017-008A","EPOCH":"2026-04-25T22:18:07.318368","MEAN_MOTION":15.1926311,"ECCENTRICITY":0.00057362,"INCLINATION":97.4146,"RA_OF_ASC_NODE":176.1973,"ARG_OF_PERICENTER":72.2893,"MEAN_ANOMALY":287.8968,"EPHEMERIS_TYPE":0,"CLASSIFICATION_TYPE":"U","NORAD_CAT_ID":41948,"ELEMENT_SET_NO":999,"REV_AT_EPOCH":50964,"BSTAR":0.0001348639,"MEAN_MOTION_DOT":2.776e-5,"MEAN_MOTION_DDOT":0},{"OBJECT_NAME":"SENTINEL-2B","OBJECT_ID":"2017-013A","EPOCH":"2026-04-25T21:35:40.286112","MEAN_MOTION":14.30813332,"ECCENTRICITY":0.00012338,"INCLINATION":98.5647,"RA_OF_ASC_NODE":191.4149,"ARG_OF_PERICENTER":89.503,"MEAN_ANOMALY":270.6294,"EPHEMERIS_TYPE":0,"CLASSIFICATION_TYPE":"U","NORAD_CAT_ID":42063,"ELEMENT_SET_NO":999,"REV_AT_EPOCH":47716,"BSTAR":-1.354e-6,"MEAN_MOTION_DOT":-4.7e-7,"MEAN_MOTION_DDOT":0},{"OBJECT_NAME":"CARTOSAT-2E","OBJECT_ID":"2017-036C","EPOCH":"2026-04-25T19:33:04.271328","MEAN_MOTION":15.19300539,"ECCENTRICITY":0.00043144,"INCLINATION":97.4313,"RA_OF_ASC_NODE":176.4674,"ARG_OF_PERICENTER":123.1784,"MEAN_ANOMALY":236.9865,"EPHEMERIS_TYPE":0,"CLASSIFICATION_TYPE":"U","NORAD_CAT_ID":42767,"ELEMENT_SET_NO":999,"REV_AT_EPOCH":49019,"BSTAR":1.143053e-5,"MEAN_MOTION_DOT":1.74e-6,"MEAN_MOTION_DDOT":0},{"OBJECT_NAME":"FORMOSAT-5","OBJECT_ID":"2017-049A","EPOCH":"2026-04-25T21:59:18.409920","MEAN_MOTION":14.50877463,"ECCENTRICITY":0.00103255,"INCLINATION":98.226,"RA_OF_ASC_NODE":192.3847,"ARG_OF_PERICENTER":240.0911,"MEAN_ANOMALY":119.9259,"EPHEMERIS_TYPE":0,"CLASSIFICATION_TYPE":"U","NORAD_CAT_ID":42920,"ELEMENT_SET_NO":999,"REV_AT_EPOCH":45909,"BSTAR":4.9293074e-5,"MEAN_MOTION_DOT":1.51e-6,"MEAN_MOTION_DDOT":0},{"OBJECT_NAME":"SENTINEL-5P","OBJECT_ID":"2017-064A","EPOCH":"2026-04-25T19:56:04.790400","MEAN_MOTION":14.19509761,"ECCENTRICITY":0.00012548,"INCLINATION":98.794,"RA_OF_ASC_NODE":58.3384,"ARG_OF_PERICENTER":81.7214,"MEAN_ANOMALY":278.4104,"EPHEMERIS_TYPE":0,"CLASSIFICATION_TYPE":"U","NORAD_CAT_ID":42969,"ELEMENT_SET_NO":999,"REV_AT_EPOCH":44213,"BSTAR":4.1701916e-5,"MEAN_MOTION_DOT":4.4e-7,"MEAN_MOTION_DDOT":0},{"OBJECT_NAME":"SKYSAT-C11","OBJECT_ID":"2017-068A","EPOCH":"2026-04-25T20:31:05.157120","MEAN_MOTION":15.55171984,"ECCENTRICITY":0.00015159,"INCLINATION":97.4284,"RA_OF_ASC_NODE":262.5396,"ARG_OF_PERICENTER":141.8945,"MEAN_ANOMALY":218.2416,"EPHEMERIS_TYPE":0,"CLASSIFICATION_TYPE":"U","NORAD_CAT_ID":42987,"ELEMENT_SET_NO":999,"REV_AT_EPOCH":47510,"BSTAR":0.00044135375,"MEAN_MOTION_DOT":0.0002974,"MEAN_MOTION_DDOT":0},{"OBJECT_NAME":"SKYSAT-C10","OBJECT_ID":"2017-068B","EPOCH":"2026-04-25T20:27:13.502304","MEAN_MOTION":15.33701216,"ECCENTRICITY":0.00016259,"INCLINATION":97.4423,"RA_OF_ASC_NODE":252.251,"ARG_OF_PERICENTER":110.6604,"MEAN_ANOMALY":249.4813,"EPHEMERIS_TYPE":0,"CLASSIFICATION_TYPE":"U","NORAD_CAT_ID":42988,"ELEMENT_SET_NO":999,"REV_AT_EPOCH":47433,"BSTAR":0.00035424656,"MEAN_MOTION_DOT":0.00011469,"MEAN_MOTION_DDOT":0},{"OBJECT_NAME":"SKYSAT-C9","OBJECT_ID":"2017-068C","EPOCH":"2026-04-25T21:32:46.094208","MEAN_MOTION":15.40259219,"ECCENTRICITY":0.00076197,"INCLINATION":97.4345,"RA_OF_ASC_NODE":252.7472,"ARG_OF_PERICENTER":331.9356,"MEAN_ANOMALY":28.1478,"EPHEMERIS_TYPE":0,"CLASSIFICATION_TYPE":"U","NORAD_CAT_ID":42989,"ELEMENT_SET_NO":999,"REV_AT_EPOCH":47470,"BSTAR":0.00035936853,"MEAN_MOTION_DOT":0.00014398,"MEAN_MOTION_DDOT":0},{"OBJECT_NAME":"SKYSAT-C8","OBJECT_ID":"2017-068D","EPOCH":"2026-04-25T20:03:29.777184","MEAN_MOTION":15.35910651,"ECCENTRICITY":0.00011703,"INCLINATION":97.4439,"RA_OF_ASC_NODE":251.8397,"ARG_OF_PERICENTER":111.5117,"MEAN_ANOMALY":248.6252,"EPHEMERIS_TYPE":0,"CLASSIFICATION_TYPE":"U","NORAD_CAT_ID":42990,"ELEMENT_SET_NO":999,"REV_AT_EPOCH":47427,"BSTAR":0.00036407347,"MEAN_MOTION_DOT":0.0001265,"MEAN_MOTION_DDOT":0},{"OBJECT_NAME":"SKYSAT-C7","OBJECT_ID":"2017-068E","EPOCH":"2026-04-25T21:25:16.106592","MEAN_MOTION":15.35853996,"ECCENTRICITY":0.00047028,"INCLINATION":97.4452,"RA_OF_ASC_NODE":252.8833,"ARG_OF_PERICENTER":297.8894,"MEAN_ANOMALY":62.1873,"EPHEMERIS_TYPE":0,"CLASSIFICATION_TYPE":"U","NORAD_CAT_ID":42991,"ELEMENT_SET_NO":999,"REV_AT_EPOCH":47434,"BSTAR":0.00035678797,"MEAN_MOTION_DOT":0.00012376,"MEAN_MOTION_DDOT":0},{"OBJECT_NAME":"SKYSAT-C6","OBJECT_ID":"2017-068F","EPOCH":"2026-04-25T21:27:12.385440","MEAN_MOTION":15.33518427,"ECCENTRICITY":0.00018402,"INCLINATION":97.4485,"RA_OF_ASC_NODE":253.0266,"ARG_OF_PERICENTER":4.0652,"MEAN_ANOMALY":356.0605,"EPHEMERIS_TYPE":0,"CLASSIFICATION_TYPE":"U","NORAD_CAT_ID":42992,"ELEMENT_SET_NO":999,"REV_AT_EPOCH":47430,"BSTAR":0.00034768913,"MEAN_MOTION_DOT":0.0001119,"MEAN_MOTION_DDOT":0},{"OBJECT_NAME":"CARTOSAT-2F","OBJECT_ID":"2018-004A","EPOCH":"2026-04-25T21:53:38.552064","MEAN_MOTION":15.19268212,"ECCENTRICITY":0.00023772,"INCLINATION":97.4073,"RA_OF_ASC_NODE":176.1952,"ARG_OF_PERICENTER":95.3247,"MEAN_ANOMALY":264.8259,"EPHEMERIS_TYPE":0,"CLASSIFICATION_TYPE":"U","NORAD_CAT_ID":43111,"ELEMENT_SET_NO":999,"REV_AT_EPOCH":45939,"BSTAR":0.0001923709,"MEAN_MOTION_DOT":3.989e-5,"MEAN_MOTION_DDOT":0},{"OBJECT_NAME":"GAOFEN-1 02","OBJECT_ID":"2018-031A","EPOCH":"2026-04-25T21:52:57.637344","MEAN_MOTION":14.76440526,"ECCENTRICITY":0.00033763,"INCLINATION":98.0559,"RA_OF_ASC_NODE":178.5742,"ARG_OF_PERICENTER":151.6651,"MEAN_ANOMALY":208.4743,"EPHEMERIS_TYPE":0,"CLASSIFICATION_TYPE":"U","NORAD_CAT_ID":43259,"ELEMENT_SET_NO":999,"REV_AT_EPOCH":43498,"BSTAR":1.2964901e-5,"MEAN_MOTION_DOT":3.9e-7,"MEAN_MOTION_DDOT":0},{"OBJECT_NAME":"GAOFEN-1 03","OBJECT_ID":"2018-031B","EPOCH":"2026-04-25T22:59:03.628896","MEAN_MOTION":14.76430633,"ECCENTRICITY":0.00014763,"INCLINATION":98.0557,"RA_OF_ASC_NODE":178.4841,"ARG_OF_PERICENTER":210.3977,"MEAN_ANOMALY":149.7147,"EPHEMERIS_TYPE":0,"CLASSIFICATION_TYPE":"U","NORAD_CAT_ID":43260,"ELEMENT_SET_NO":999,"REV_AT_EPOCH":43498,"BSTAR":0.00011145216,"MEAN_MOTION_DOT":7.23e-6,"MEAN_MOTION_DDOT":0}]
